{
  "type": "FeatureCollection",
  "features": [
    {
      "type": "Feature",
      "properties": {
        "norad_id": 35587,
        "name": "COSMOS 2251 DEB",
        "group": "cosmos-2251-debris",
        "lat": -0.7061141311838856,
        "lon": -106.10386150713846,
        "alt_km": 648.8669102750355,
        "timestamp": "2025-12-04T21:36:16.268253+00:00",
        "meta_object_name": "COSMOS 2251 DEB",
        "meta_object_id": "1993-036AME",
        "meta_epoch": "2025-12-04T12:37:02.430048",
        "meta_mean_motion": 14.71472261,
        "meta_eccentricity": 0.01027344,
        "meta_inclination": 74.0052,
        "meta_ra_of_asc_node": 74.4225,
        "meta_arg_of_pericenter": 263.8785,
        "meta_mean_anomaly": 95.0674,
        "meta_ephemeris_type": 0,
        "meta_classification_type": "U",
        "meta_norad_cat_id": 35587,
        "meta_element_set_no": 999,
        "meta_rev_at_epoch": 66225,
        "meta_bstar": 0.00065130862,
        "meta_mean_motion_dot": 4.353e-05,
        "meta_mean_motion_ddot": 0,
        "tle_line1": "1 35587U 93036AME 25338.52572257  .00004353  00000+0  65131-3 0  9998",
        "tle_line2": "2 35587  74.0052  74.4225 0102734 263.8785  95.0674 14.71472261662255"
      },
      "geometry": {
        "type": "Point",
        "coordinates": [
          -106.10386150713846,
          -0.7061141311838856
        ]
      }
    },
    {
      "type": "Feature",
      "properties": {
        "norad_id": 35593,
        "name": "COSMOS 2251 DEB",
        "group": "cosmos-2251-debris",
        "lat": 11.557405082661434,
        "lon": 119.21703617644104,
        "alt_km": 867.7481431004198,
        "timestamp": "2025-12-04T21:36:16.268263+00:00",
        "meta_object_name": "COSMOS 2251 DEB",
        "meta_object_id": "1993-036AML",
        "meta_epoch": "2025-12-02T08:10:41.646720",
        "meta_mean_motion": 14.25498697,
        "meta_eccentricity": 0.01053488,
        "meta_inclination": 74.0851,
        "meta_ra_of_asc_node": 307.1662,
        "meta_arg_of_pericenter": 315.9582,
        "meta_mean_anomaly": 43.3207,
        "meta_ephemeris_type": 0,
        "meta_classification_type": "U",
        "meta_norad_cat_id": 35593,
        "meta_element_set_no": 999,
        "meta_rev_at_epoch": 84917,
        "meta_bstar": 0.0018161686,
        "meta_mean_motion_dot": 4.526e-05,
        "meta_mean_motion_ddot": 0,
        "tle_line1": "1 35593U 93036AML 25336.34075980  .00004526  00000+0  18162-2 0  9997",
        "tle_line2": "2 35593  74.0851 307.1662 0105348 315.9582  43.3207 14.25498697849174"
      },
      "geometry": {
        "type": "Point",
        "coordinates": [
          119.21703617644104,
          11.557405082661434
        ]
      }
    },
    {
      "type": "Feature",
      "properties": {
        "norad_id": 35594,
        "name": "COSMOS 2251 DEB",
        "group": "cosmos-2251-debris",
        "lat": 21.556214078384595,
        "lon": -64.20211869010642,
        "alt_km": 599.6859634454295,
        "timestamp": "2025-12-04T21:36:16.268288+00:00",
        "meta_object_name": "COSMOS 2251 DEB",
        "meta_object_id": "1993-036AMM",
        "meta_epoch": "2025-12-01T02:30:04.449024",
        "meta_mean_motion": 14.8736155,
        "meta_eccentricity": 0.00313469,
        "meta_inclination": 73.8065,
        "meta_ra_of_asc_node": 130.0573,
        "meta_arg_of_pericenter": 241.1394,
        "meta_mean_anomaly": 118.6638,
        "meta_ephemeris_type": 0,
        "meta_classification_type": "U",
        "meta_norad_cat_id": 35594,
        "meta_element_set_no": 999,
        "meta_rev_at_epoch": 88012,
        "meta_bstar": 0.00176297,
        "meta_mean_motion_dot": 0.00016075,
        "meta_mean_motion_ddot": 0,
        "tle_line1": "1 35594U 93036AMM 25335.10421816  .00016075  00000+0  17630-2 0  9995",
        "tle_line2": "2 35594  73.8065 130.0573 0031346 241.1394 118.6638 14.87361550880129"
      },
      "geometry": {
        "type": "Point",
        "coordinates": [
          -64.20211869010642,
          21.556214078384595
        ]
      }
    },
    {
      "type": "Feature",
      "properties": {
        "norad_id": 35602,
        "name": "COSMOS 2251 DEB",
        "group": "cosmos-2251-debris",
        "lat": 19.71840297584606,
        "lon": -155.02582788302036,
        "alt_km": 486.61125397231535,
        "timestamp": "2025-12-04T21:36:16.268300+00:00",
        "meta_object_name": "COSMOS 2251 DEB",
        "meta_object_id": "1993-036AMV",
        "meta_epoch": "2025-12-03T02:23:02.143104",
        "meta_mean_motion": 15.34579321,
        "meta_eccentricity": 0.0090916,
        "meta_inclination": 73.9948,
        "meta_ra_of_asc_node": 202.9376,
        "meta_arg_of_pericenter": 270.9306,
        "meta_mean_anomaly": 244.0233,
        "meta_ephemeris_type": 0,
        "meta_classification_type": "U",
        "meta_norad_cat_id": 35602,
        "meta_element_set_no": 999,
        "meta_rev_at_epoch": 89943,
        "meta_bstar": 0.00066173,
        "meta_mean_motion_dot": 0.00025422,
        "meta_mean_motion_ddot": 0,
        "tle_line1": "1 35602U 93036AMV 25337.09933036  .00025422  00000+0  66173-3 0  9990",
        "tle_line2": "2 35602  73.9948 202.9376 0090916 270.9306 244.0233 15.34579321899430"
      },
      "geometry": {
        "type": "Point",
        "coordinates": [
          -155.02582788302036,
          19.71840297584606
        ]
      }
    },
    {
      "type": "Feature",
      "properties": {
        "norad_id": 35605,
        "name": "COSMOS 2251 DEB",
        "group": "cosmos-2251-debris",
        "lat": 26.519931122184012,
        "lon": 165.23459854989207,
        "alt_km": 491.8094715026882,
        "timestamp": "2025-12-04T21:36:16.268310+00:00",
        "meta_object_name": "COSMOS 2251 DEB",
        "meta_object_id": "1993-036AMY",
        "meta_epoch": "2025-11-25T09:05:01.395168",
        "meta_mean_motion": 15.26251894,
        "meta_eccentricity": 0.00343964,
        "meta_inclination": 73.8732,
        "meta_ra_of_asc_node": 13.9291,
        "meta_arg_of_pericenter": 311.4103,
        "meta_mean_anomaly": 48.4141,
        "meta_ephemeris_type": 0,
        "meta_classification_type": "U",
        "meta_norad_cat_id": 35605,
        "meta_element_set_no": 999,
        "meta_rev_at_epoch": 65706,
        "meta_bstar": 0.0065174874,
        "meta_mean_motion_dot": 0.00175767,
        "meta_mean_motion_ddot": 0,
        "tle_line1": "1 35605U 93036AMY 25329.37848837  .00175767  00000+0  65175-2 0  9997",
        "tle_line2": "2 35605  73.8732  13.9291 0034396 311.4103  48.4141 15.26251894657063"
      },
      "geometry": {
        "type": "Point",
        "coordinates": [
          165.23459854989207,
          26.519931122184012
        ]
      }
    },
    {
      "type": "Feature",
      "properties": {
        "norad_id": 35606,
        "name": "COSMOS 2251 DEB",
        "group": "cosmos-2251-debris",
        "lat": 19.308562259575737,
        "lon": -162.5476600020313,
        "alt_km": 975.7756724655874,
        "timestamp": "2025-12-04T21:36:16.268320+00:00",
        "meta_object_name": "COSMOS 2251 DEB",
        "meta_object_id": "1993-036AMZ",
        "meta_epoch": "2025-12-03T08:57:47.035584",
        "meta_mean_motion": 13.41186059,
        "meta_eccentricity": 0.04578387,
        "meta_inclination": 73.8109,
        "meta_ra_of_asc_node": 25.726,
        "meta_arg_of_pericenter": 232.8079,
        "meta_mean_anomaly": 123.0404,
        "meta_ephemeris_type": 0,
        "meta_classification_type": "U",
        "meta_norad_cat_id": 35606,
        "meta_element_set_no": 999,
        "meta_rev_at_epoch": 60914,
        "meta_bstar": 0.0017547479,
        "meta_mean_motion_dot": 1.782e-05,
        "meta_mean_motion_ddot": 0,
        "tle_line1": "1 35606U 93036AMZ 25337.37346106  .00001782  00000+0  17547-2 0  9994",
        "tle_line2": "2 35606  73.8109  25.7260 0457838 232.8079 123.0404 13.41186059609140"
      },
      "geometry": {
        "type": "Point",
        "coordinates": [
          -162.5476600020313,
          19.308562259575737
        ]
      }
    },
    {
      "type": "Feature",
      "properties": {
        "norad_id": 35611,
        "name": "COSMOS 2251 DEB",
        "group": "cosmos-2251-debris",
        "lat": -1.330864203741558,
        "lon": 14.965088890409131,
        "alt_km": 655.0858445932445,
        "timestamp": "2025-12-04T21:36:16.268330+00:00",
        "meta_object_name": "COSMOS 2251 DEB",
        "meta_object_id": "1993-036ANE",
        "meta_epoch": "2025-12-01T14:30:37.941120",
        "meta_mean_motion": 14.72378528,
        "meta_eccentricity": 0.00224128,
        "meta_inclination": 74.0218,
        "meta_ra_of_asc_node": 201.0005,
        "meta_arg_of_pericenter": 275.1179,
        "meta_mean_anomaly": 84.7435,
        "meta_ephemeris_type": 0,
        "meta_classification_type": "U",
        "meta_norad_cat_id": 35611,
        "meta_element_set_no": 999,
        "meta_rev_at_epoch": 87126,
        "meta_bstar": 0.0019124254,
        "meta_mean_motion_dot": 0.00012147,
        "meta_mean_motion_ddot": 0,
        "tle_line1": "1 35611U 93036ANE 25335.60460580  .00012147  00000+0  19124-2 0  9997",
        "tle_line2": "2 35611  74.0218 201.0005 0022412 275.1179  84.7435 14.72378528871263"
      },
      "geometry": {
        "type": "Point",
        "coordinates": [
          14.965088890409131,
          -1.330864203741558
        ]
      }
    }
  ]
}